STARLINK-2294           
1 48020U 21024AV  24170.39352742  .00000131  00000+0  27694-4 0  9998
2 48020  53.0532 212.0306 0001253  86.3983 273.7150 15.06399299180159
STARLINK-2301           
1 48021U 21024AW  24169.87421994 -.00001656  00000+0 -92329-4 0  9998
2 48021  53.0535 218.9579 0001232  85.1132 274.9998 15.06380449180497
STARLINK-2298           
1 48022U 21024AX  24170.03552006  .00012439  00000+0  85286-3 0  9990
2 48022  53.0538 278.5246 0001257  86.9317 273.1816 15.06384859179199
STARLINK-2292           
1 48023U 21024AY  24170.55519860  .00016696  00000+0  11371-2 0  9991
2 48023  53.0546 275.9113 0001259  76.1538 283.9591 15.06399324179272
STARLINK-2278           
1 48026U 21024BB  24169.73830033  .00003395  00000+0  24677-3 0  9996
2 48026  53.0548 284.5791 0001102  67.1209 292.9897 15.06388762179551
STARLINK-2264           
1 48028U 21024BD  24170.14656959 -.00000467  00000+0 -12458-4 0  9992
2 48028  53.0538 213.1410 0001228  94.4264 265.6865 15.06396694180110
STARLINK-2299           
1 48029U 21024BE  24170.53308252  .00014234  00000+0  97249-3 0  9991
2 48029  53.0559 276.0139 0001344 116.9746 243.1380 15.06401120179273
STARLINK-2268           
1 48030U 21024BF  24170.56027075  .00017440  00000+0  11866-2 0  9999
2 48030  53.0542 280.8874 0001224  78.3921 281.7206 15.06405439179204
STARLINK-2267           
1 48031U 21024BG  24170.20042097 -.00000026  00000+0  17116-4 0  9991
2 48031  53.0534 167.5022 0001292  91.8639 268.2498 15.06400134180766
STARLINK-2286           
1 48033U 21024BJ  24170.52202436  .00001442  00000+0  11571-3 0  9993
2 48033  53.0548 276.0594 0001261  93.6118 266.5015 15.06399176179274
STARLINK-2288           
1 48034U 21024BK  24170.54045929  .00014753  00000+0  10073-2 0  9992
2 48034  53.0547 275.9783 0001101  80.0052 280.1061 15.06397797179272
STARLINK-2295           
1 48036U 21024BM  24170.54783109  .00016445  00000+0  11202-2 0  9998
2 48036  53.0549 275.9458 0001117  76.2093 283.9020 15.06403573179270
STARLINK-2048           
1 48092U 21027A   24170.35388623  .00003054  00000+0  22374-3 0  9999
2 48092  53.0535  42.0921 0001060  81.7248 278.3861 15.06409414178208
STARLINK-2404           
1 48093U 21027B   24170.11752426  .00001608  00000+0  12683-3 0  9995
2 48093  53.0545 108.0773 0001493  85.9036 274.2124 15.06405313177265
STARLINK-2412           
1 48094U 21027C   24170.26770170  .00004575  00000+0  32603-3 0  9998
2 48094  53.0555 117.1998 0001646  97.8571 262.2605 15.06376863177159
STARLINK-2414           
1 48095U 21027D   24170.54044893 -.00000307  00000+0 -17287-5 0  9990
2 48095  53.0548 115.9730 0001506  94.0449 266.0712 15.06400598177198
STARLINK-2417           
1 48096U 21027E   24170.11657438  .00000794  00000+0  72202-4 0  9994
2 48096  53.0551 117.8775 0001440  85.5310 274.5843 15.06402398177124
STARLINK-2418           
1 48097U 21027F   24170.02995096 -.00000485  00000+0 -13654-4 0  9995
2 48097  53.0552  98.2681 0001350  91.8004 268.3139 15.06407266177391
STARLINK-2421           
1 48098U 21027G   24170.53769925 -.00001702  00000+0 -95427-4 0  9993
2 48098  53.0568 105.9871 0001380  90.3129 269.8018 15.06393521177380
STARLINK-2428           
1 48099U 21027H   24170.12763530  .00000613  00000+0  60064-4 0  9992
2 48099  53.0545 117.8276 0001477  88.0382 272.0776 15.06398820177125
STARLINK-2430           
1 48100U 21027J   24170.22164129 -.00002167  00000+0 -12663-3 0  9994
2 48100  53.0553  97.4060 0001579  93.6491 266.4678 15.06391311177426
STARLINK-2436           
1 48101U 21027K   24170.09172106  .00001879  00000+0  14495-3 0  9996
2 48101  53.0562 108.1926 0001559  86.2229 273.8938 15.06415356177262
STARLINK-2437           
1 48102U 21027L   24170.51281437  .00002221  00000+0  16794-3 0  9998
2 48102  53.0536  96.0969 0001490  86.1988 273.9172 15.06395891177465
STARLINK-2438           
1 48103U 21027M   24170.25001157  .00296293  00000+0  19420-2 0  9991
2 48103  53.0435  23.4204 0005205 194.6856  92.0809 15.74355963178477
STARLINK-2439           
1 48104U 21027N   24170.53263009 -.00001184  00000+0 -60630-4 0  9995
2 48104  53.0549 101.0100 0001631  85.4221 274.6954 15.06394192177407
STARLINK-2440           
1 48105U 21027P   24170.37368022  .00005483  00000+0  38676-3 0  9997
2 48105  53.0562  46.7248 0002145  82.8841 277.2392 15.06393699178149
STARLINK-2442           
1 48106U 21027Q   24170.49069638  .00001224  00000+0  10103-3 0  9996
2 48106  53.0536  96.2053 0001364  84.8888 275.2256 15.06399886177465
STARLINK-2443           
1 48107U 21027R   24170.10735470  .00000414  00000+0  46679-4 0  9997
2 48107  53.0554  97.9203 0001546  96.2699 263.8466 15.06409691177406
STARLINK-2444           
1 48108U 21027S   24170.58335648  .00976661  46527-3  20038-2 0  9996
2 48108  53.0497  64.5659 0003629 259.0958 212.8870 15.98820440177918
STARLINK-2447           
1 48110U 21027U   24169.80419061  .00000130  00000+0  27649-4 0  9992
2 48110  53.0552 109.2815 0001639  88.8017 271.3160 15.06401696177624
STARLINK-2448           
1 48111U 21027V   24169.86316985 -.00000353  00000+0 -48242-5 0  9992
2 48111  53.0550 108.9867 0001500  87.2397 272.8763 15.06395019177230
STARLINK-2449           
1 48112U 21027W   24170.18802762  .00016920  00000+0  11543-2 0  9999
2 48112  53.0537 122.7225 0001931  90.6403 269.4807 15.06327473177063
STARLINK-2450           
1 48113U 21027X   24170.12394587 -.00002249  00000+0 -13207-3 0  9996
2 48113  53.0550 117.8435 0001479  93.7943 266.3215 15.06409076177123
STARLINK-2452           
1 48115U 21027Z   24170.11381267  .00000637  00000+0  61683-4 0  9997
2 48115  53.0548 107.9007 0001647  89.4194 270.6984 15.06401998177265
STARLINK-2454           
1 48116U 21027AA  24170.12026196 -.00000758  00000+0 -31996-4 0  9996
2 48116  53.0543 117.8603 0001523  92.5097 267.6066 15.06396730177122
STARLINK-2455           
1 48117U 21027AB  24170.09166430  .00001498  00000+0  11939-3 0  9993
2 48117  53.0545  97.9792 0001475  99.9575 260.1580 15.06410793177406
STARLINK-2458           
1 48118U 21027AC  24170.50175374  .00001494  00000+0  11915-3 0  9997
2 48118  53.0530  96.1473 0001323  88.2801 271.8339 15.06399468177465
STARLINK-2459           
1 48119U 21027AD  24170.16538325  .00000843  00000+0  75440-4 0  9990
2 48119  53.0544  97.6497 0001444  97.0174 263.0980 15.06408694177410
STARLINK-2460           
1 48120U 21027AE  24169.84013443 -.00000713  00000+0 -28993-4 0  9993
2 48120  53.0549 119.1201 0002036 106.2880 253.8333 15.06394815177086
STARLINK-2462           
1 48121U 21027AF  24170.54137515  .00000898  00000+0  79116-4 0  9995
2 48121  53.0540 105.9732 0001394  79.8010 280.3136 15.06413674177335
STARLINK-2463           
1 48122U 21027AG  24169.81018201  .00000100  00000+0  25644-4 0  9997
2 48122  53.0551 104.2264 0001514  84.1111 276.0050 15.06397917177692
STARLINK-2464           
1 48123U 21027AH  24170.08523517 -.00000137  00000+0  96873-5 0  9994
2 48123  53.0552  98.0178 0001165  97.4945 262.6176 15.06407705177396
STARLINK-2465           
1 48124U 21027AJ  24170.15066897 -.00000615  00000+0 -22370-4 0  9998
2 48124  53.0550 107.7274 0001529  89.2176 270.8988 15.06399620177274
STARLINK-2466           
1 48125U 21027AK  24169.89913209  .00000502  00000+0  52579-4 0  9993
2 48125  53.0549 119.0971 0001586  90.7797 269.3374 15.06404280177093
STARLINK-2467           
1 48126U 21027AL  24169.52129915  .00001206  00000+0  99873-4 0  9997
2 48126  53.0545 100.5494 0001493  85.3508 274.7651 15.06387514177720
STARLINK-2468           
1 48127U 21027AM  24170.17555114 -.00000422  00000+0 -94656-5 0  9991
2 48127  53.0544 117.6136 0001433  85.8976 274.2176 15.06401267177134
STARLINK-2469           
1 48128U 21027AN  24170.35525595  .00006056  00000+0  42507-3 0  9995
2 48128  53.0551  46.8956 0001429  77.2979 282.8170 15.06400999178141
STARLINK-2471           
1 48129U 21027AP  24170.16817995  .00000422  00000+0  47228-4 0  9990
2 48129  53.0553 117.6487 0001701  94.3764 265.7420 15.06400386177131
STARLINK-2472           
1 48130U 21027AQ  24170.13182686 -.00000489  00000+0 -14403-4 0  9995
2 48130  53.0544 123.2368 0001416  86.7984 273.3167 15.05583900177053
STARLINK-2473           
1 48131U 21027AR  24170.17738592  .00000553  00000+0  56030-4 0  9995
2 48131  53.0554  97.6062 0001625 101.4731 258.6441 15.06410472177412
STARLINK-2474           
1 48132U 21027AS  24170.15712124 -.00000493  00000+0 -14175-4 0  9996
2 48132  53.0545 117.6968 0001448  87.7270 272.3884 15.06400231177133
STARLINK-2475           
1 48133U 21027AT  24170.55151467  .00000168  00000+0  30200-4 0  9992
2 48133  53.0546 115.9279 0001448  94.3510 265.7644 15.06396438177191
STARLINK-2476           
1 48134U 21027AU  24169.87329948  .00000362  00000+0  43181-4 0  9995
2 48134  53.0558 118.9697 0001559  91.3719 268.7449 15.06399995177482
STARLINK-2478           
1 48135U 21027AV  24169.60931679  .00000948  00000+0  82532-4 0  9990
2 48135  53.0545 125.3193 0001389  89.7050 270.4098 15.06400212177375
STARLINK-2479           
1 48136U 21027AW  24170.54421551 -.00000099  00000+0  12276-4 0  9995
2 48136  53.0545 116.4635 0001488  89.5266 270.5894 15.06390475177188
STARLINK-2480           
1 48137U 21027AX  24170.52018806  .00007927  00000+0  55046-3 0  9996
2 48137  53.0537  96.0358 0001362  94.8428 265.2716 15.06398214177469
STARLINK-2481           
1 48138U 21027AY  24170.14974244  .00000434  00000+0  48048-4 0  9993
2 48138  53.0544 117.7306 0001401  91.4541 268.6609 15.06404829177137
STARLINK-2482           
1 48139U 21027AZ  24169.94149842  .00003635  00000+0  26277-3 0  9993
2 48139  53.0542  98.6656 0001331  76.6353 283.4785 15.06402581177783
STARLINK-2483           
1 48140U 21027BA  24170.22722644  .00005644  00000+0  39779-3 0  9998
2 48140  53.0552 117.9321 0001694 100.1553 259.9627 15.06374343177133
